[
    {
        "Altitude(m)": 617719.7309472406,
        "Argument of Periapsis(deg)": 0.0,
        "Eccentricity": 0.0,
        "Inclination(deg)": 60.0,
        "Latitude(deg)": -41.10253182891927,
        "Longitude(deg)": 145.0945634053279,
        "Mean Anomaly(deg)": 229.09089999999998,
        "RAAN(deg)": 35.0,
        "Satellite Name": "Test1 168",
        "Satellite Number": 168,
        "Semi-Major Axis(m)": 6980739.136638005,
        "Time(s)": 0
    },
    {
        "Altitude(m)": 617911.267083989,
        "Argument of Periapsis(deg)": 0.00010418945913296404,
        "Eccentricity": 0.0,
        "Inclination(deg)": 60.0,
        "Latitude(deg)": -41.56572466902853,
        "Longitude(deg)": 145.59896774333384,
        "Mean Anomaly(deg)": 229.71100614546188,
        "RAAN(deg)": 34.99957995086025,
        "Satellite Name": "Test1 168",
        "Satellite Number": 168,
        "Semi-Major Axis(m)": 6980739.136638005,
        "Time(s)": 10
    }
]